0 THORAD AGENA D DEB
1 04765U 70025DK  13283.17428863  .00003057  00000-0  93400-3 0  9255
2 04765 099.5945 348.5844 0078033 192.6562 187.0691 14.40979360234849
0 THORAD AGENA D DEB
1 04765U 70025DK  13286.16664579  .00003871  00000-0  11776-2 0  9274
2 04765 099.5948 351.9394 0078075 184.1075 229.9586 14.40997435235271
0 THORAD AGENA D DEB
1 04765U 70025DK  13287.41811464  .00004285  00000-0  13014-2 0  9288
2 04765 099.5950 353.3425 0078111 180.5459 242.0224 14.41005260235454
0 THORAD AGENA D DEB
1 04765U 70025DK  13288.74764598  .00004852  00000-0  14709-2 0  9293
2 04765 099.5948 354.8334 0078113 176.7412 299.1069 14.41019090235641
0 THORAD AGENA D DEB
1 04765U 70025DK  13289.78893194  .00004806  00000-0  14568-2 0  9307
2 04765 099.5946 356.0011 0078170 173.7266 300.9655 14.41026594235797
0 THORAD AGENA D DEB
1 04765U 70025DK  13291.16592719  .00004700  00000-0  14246-2 0  9318
2 04765 099.5942 357.5453 0078175 169.7788 244.3870 14.41038015235991
0 THORAD AGENA D DEB
1 04765U 70025DK  13292.41730561  .00004295  00000-0  13032-2 0  9328
2 04765 099.5938 358.9483 0078186 166.2286 256.1561 14.41047744236179
0 THORAD AGENA D DEB
1 04765U 70025DK  13293.46007128  .00004761  00000-0  14425-2 0  9336
2 04765 099.5933 000.1176 0078202 163.2027 265.8080 14.41054562236324
0 THORAD AGENA D DEB
1 04765U 70025DK  13294.79295987  .00004991  00000-0  15109-2 0  9341
2 04765 099.5928 001.6118 0078201 159.4222 340.5050 14.41064774236518
0 THORAD AGENA D DEB
1 04765U 70025DK  13296.16017714  .00004926  00000-0  14912-2 0  9354
2 04765 099.5927 003.1448 0078172 155.5134 233.3710 14.41073855236710
